[{"OBJECT_NAME":"ECHOSTAR 19","OBJECT_ID":"2016-079A","EPOCH":"2026-03-03T15:19:31.094112","MEAN_MOTION":1.00271159,"ECCENTRICITY":0.0001468,"INCLINATION":0.0147,"RA_OF_ASC_NODE":118.439,"ARG_OF_PERICENTER":222.805,"MEAN_ANOMALY":312.926,"EPHEMERIS_TYPE":0,"CLASSIFICATION_TYPE":"U","NORAD_CAT_ID":41893,"ELEMENT_SET_NO":999,"REV_AT_EPOCH":3364,"BSTAR":0,"MEAN_MOTION_DOT":-1.53e-6,"MEAN_MOTION_DDOT":0},{"OBJECT_NAME":"JCSAT-110A (JCSAT-15)","OBJECT_ID":"2016-082A","EPOCH":"2026-03-03T14:26:38.976000","MEAN_MOTION":1.00270304,"ECCENTRICITY":7.79e-5,"INCLINATION":0.0032,"RA_OF_ASC_NODE":163.7197,"ARG_OF_PERICENTER":193.878,"MEAN_ANOMALY":130.4782,"EPHEMERIS_TYPE":0,"CLASSIFICATION_TYPE":"U","NORAD_CAT_ID":41903,"ELEMENT_SET_NO":999,"REV_AT_EPOCH":3370,"BSTAR":0,"MEAN_MOTION_DOT":-3.65e-6,"MEAN_MOTION_DDOT":0},{"OBJECT_NAME":"STAR ONE D1","OBJECT_ID":"2016-082B","EPOCH":"2026-03-03T13:40:33.077856","MEAN_MOTION":1.00271426,"ECCENTRICITY":0.0002165,"INCLINATION":0.0188,"RA_OF_ASC_NODE":102.1961,"ARG_OF_PERICENTER":244.6353,"MEAN_ANOMALY":295.6287,"EPHEMERIS_TYPE":0,"CLASSIFICATION_TYPE":"U","NORAD_CAT_ID":41904,"ELEMENT_SET_NO":999,"REV_AT_EPOCH":3371,"BSTAR":0,"MEAN_MOTION_DOT":-2.25e-6,"MEAN_MOTION_DDOT":0},{"OBJECT_NAME":"TJS-2","OBJECT_ID":"2017-001A","EPOCH":"2026-03-03T18:23:26.201472","MEAN_MOTION":1.00271581,"ECCENTRICITY":0.0001834,"INCLINATION":0.5611,"RA_OF_ASC_NODE":86.9667,"ARG_OF_PERICENTER":247.5223,"MEAN_ANOMALY":169.4161,"EPHEMERIS_TYPE":0,"CLASSIFICATION_TYPE":"U","NORAD_CAT_ID":41911,"ELEMENT_SET_NO":999,"REV_AT_EPOCH":3366,"BSTAR":0,"MEAN_MOTION_DOT":-2.0e-7,"MEAN_MOTION_DDOT":0},{"OBJECT_NAME":"SBIRS GEO-4 (USA 273)","OBJECT_ID":"2017-004A","EPOCH":"2026-03-03T14:10:30.209088","MEAN_MOTION":1.00272038,"ECCENTRICITY":0.000242,"INCLINATION":2.0476,"RA_OF_ASC_NODE":40.0392,"ARG_OF_PERICENTER":302.1281,"MEAN_ANOMALY":52.6955,"EPHEMERIS_TYPE":0,"CLASSIFICATION_TYPE":"U","NORAD_CAT_ID":41937,"ELEMENT_SET_NO":999,"REV_AT_EPOCH":3353,"BSTAR":0,"MEAN_MOTION_DOT":1.1e-6,"MEAN_MOTION_DDOT":0},{"OBJECT_NAME":"HISPASAT 36W-1","OBJECT_ID":"2017-006A","EPOCH":"2026-03-03T19:02:24.734112","MEAN_MOTION":1.00272651,"ECCENTRICITY":9.93e-5,"INCLINATION":0.002,"RA_OF_ASC_NODE":69.295,"ARG_OF_PERICENTER":265.1941,"MEAN_ANOMALY":76.6606,"EPHEMERIS_TYPE":0,"CLASSIFICATION_TYPE":"U","NORAD_CAT_ID":41942,"ELEMENT_SET_NO":999,"REV_AT_EPOCH":3318,"BSTAR":0,"MEAN_MOTION_DOT":-2.58e-6,"MEAN_MOTION_DDOT":0},{"OBJECT_NAME":"TELKOM 3S","OBJECT_ID":"2017-007A","EPOCH":"2026-03-03T18:03:37.867104","MEAN_MOTION":1.00270838,"ECCENTRICITY":0.0002388,"INCLINATION":0.006,"RA_OF_ASC_NODE":145.9922,"ARG_OF_PERICENTER":195.8961,"MEAN_ANOMALY":208.5177,"EPHEMERIS_TYPE":0,"CLASSIFICATION_TYPE":"U","NORAD_CAT_ID":41944,"ELEMENT_SET_NO":999,"REV_AT_EPOCH":3308,"BSTAR":0,"MEAN_MOTION_DOT":-3.76e-6,"MEAN_MOTION_DDOT":0},{"OBJECT_NAME":"INTELSAT 32E (IS-32E)","OBJECT_ID":"2017-007B","EPOCH":"2026-03-03T19:00:17.436672","MEAN_MOTION":1.00269682,"ECCENTRICITY":4.32e-5,"INCLINATION":0.0185,"RA_OF_ASC_NODE":128.1858,"ARG_OF_PERICENTER":134.6982,"MEAN_ANOMALY":140.5442,"EPHEMERIS_TYPE":0,"CLASSIFICATION_TYPE":"U","NORAD_CAT_ID":41945,"ELEMENT_SET_NO":999,"REV_AT_EPOCH":3316,"BSTAR":0,"MEAN_MOTION_DOT":-2.83e-6,"MEAN_MOTION_DDOT":0},{"OBJECT_NAME":"ECHOSTAR 23","OBJECT_ID":"2017-014A","EPOCH":"2026-03-03T15:15:53.940672","MEAN_MOTION":1.0027024,"ECCENTRICITY":0.0001966,"INCLINATION":0.008,"RA_OF_ASC_NODE":101.3021,"ARG_OF_PERICENTER":244.0813,"MEAN_ANOMALY":295.0734,"EPHEMERIS_TYPE":0,"CLASSIFICATION_TYPE":"U","NORAD_CAT_ID":42070,"ELEMENT_SET_NO":999,"REV_AT_EPOCH":3286,"BSTAR":0,"MEAN_MOTION_DOT":-7.1e-7,"MEAN_MOTION_DDOT":0},{"OBJECT_NAME":"WGS F9 (USA 275)","OBJECT_ID":"2017-016A","EPOCH":"2026-03-03T15:43:51.262752","MEAN_MOTION":1.00270075,"ECCENTRICITY":6.53e-5,"INCLINATION":0.0244,"RA_OF_ASC_NODE":153.3091,"ARG_OF_PERICENTER":102.8975,"MEAN_ANOMALY":129.2218,"EPHEMERIS_TYPE":0,"CLASSIFICATION_TYPE":"U","NORAD_CAT_ID":42075,"ELEMENT_SET_NO":999,"REV_AT_EPOCH":3283,"BSTAR":0,"MEAN_MOTION_DOT":0,"MEAN_MOTION_DDOT":0},{"OBJECT_NAME":"SES-10","OBJECT_ID":"2017-017A","EPOCH":"2026-03-03T18:53:33.082944","MEAN_MOTION":1.0026954,"ECCENTRICITY":0.0002704,"INCLINATION":0.0201,"RA_OF_ASC_NODE":73.7877,"ARG_OF_PERICENTER":274.5432,"MEAN_ANOMALY":29.6851,"EPHEMERIS_TYPE":0,"CLASSIFICATION_TYPE":"U","NORAD_CAT_ID":42432,"ELEMENT_SET_NO":999,"REV_AT_EPOCH":3269,"BSTAR":0,"MEAN_MOTION_DOT":-2.86e-6,"MEAN_MOTION_DDOT":0},{"OBJECT_NAME":"CHINASAT 16 (SJ-13)","OBJECT_ID":"2017-018A","EPOCH":"2026-03-02T22:46:16.783968","MEAN_MOTION":1.00270523,"ECCENTRICITY":0.00057007,"INCLINATION":0.0417,"RA_OF_ASC_NODE":96.3992,"ARG_OF_PERICENTER":163.5759,"MEAN_ANOMALY":352.806,"EPHEMERIS_TYPE":0,"CLASSIFICATION_TYPE":"U","NORAD_CAT_ID":42662,"ELEMENT_SET_NO":999,"REV_AT_EPOCH":3268,"BSTAR":0,"MEAN_MOTION_DOT":-3.68e-6,"MEAN_MOTION_DDOT":0},{"OBJECT_NAME":"KOREASAT 7","OBJECT_ID":"2017-023A","EPOCH":"2026-03-03T15:08:38.626368","MEAN_MOTION":1.00271821,"ECCENTRICITY":0.0001764,"INCLINATION":0.031,"RA_OF_ASC_NODE":25.1286,"ARG_OF_PERICENTER":344.4412,"MEAN_ANOMALY":134.8703,"EPHEMERIS_TYPE":0,"CLASSIFICATION_TYPE":"U","NORAD_CAT_ID":42691,"ELEMENT_SET_NO":999,"REV_AT_EPOCH":3231,"BSTAR":0,"MEAN_MOTION_DOT":-3.76e-6,"MEAN_MOTION_DDOT":0},{"OBJECT_NAME":"SGDC","OBJECT_ID":"2017-023B","EPOCH":"2026-03-03T18:13:13.762848","MEAN_MOTION":1.00271718,"ECCENTRICITY":0.0002751,"INCLINATION":0.0219,"RA_OF_ASC_NODE":116.8262,"ARG_OF_PERICENTER":238.4849,"MEAN_ANOMALY":4.6519,"EPHEMERIS_TYPE":0,"CLASSIFICATION_TYPE":"U","NORAD_CAT_ID":42692,"ELEMENT_SET_NO":999,"REV_AT_EPOCH":3234,"BSTAR":0,"MEAN_MOTION_DOT":-2.63e-6,"MEAN_MOTION_DDOT":0},{"OBJECT_NAME":"GSAT-9","OBJECT_ID":"2017-024A","EPOCH":"2026-03-03T18:12:38.726784","MEAN_MOTION":1.00271483,"ECCENTRICITY":0.0002032,"INCLINATION":0.1064,"RA_OF_ASC_NODE":281.4934,"ARG_OF_PERICENTER":63.8531,"MEAN_ANOMALY":186.655,"EPHEMERIS_TYPE":0,"CLASSIFICATION_TYPE":"U","NORAD_CAT_ID":42695,"ELEMENT_SET_NO":999,"REV_AT_EPOCH":3224,"BSTAR":0,"MEAN_MOTION_DOT":-3.0e-6,"MEAN_MOTION_DDOT":0},{"OBJECT_NAME":"INMARSAT 5-F4","OBJECT_ID":"2017-025A","EPOCH":"2026-03-03T08:06:38.719296","MEAN_MOTION":1.00269613,"ECCENTRICITY":1.787e-5,"INCLINATION":0.021,"RA_OF_ASC_NODE":128.7567,"ARG_OF_PERICENTER":177.2054,"MEAN_ANOMALY":33.2811,"EPHEMERIS_TYPE":0,"CLASSIFICATION_TYPE":"U","NORAD_CAT_ID":42698,"ELEMENT_SET_NO":999,"REV_AT_EPOCH":3221,"BSTAR":0,"MEAN_MOTION_DOT":6.1e-7,"MEAN_MOTION_DDOT":0},{"OBJECT_NAME":"SES-15","OBJECT_ID":"2017-026A","EPOCH":"2026-03-03T16:53:07.124352","MEAN_MOTION":1.00270029,"ECCENTRICITY":6.84e-5,"INCLINATION":0.0468,"RA_OF_ASC_NODE":313.0615,"ARG_OF_PERICENTER":28.7701,"MEAN_ANOMALY":303.7327,"EPHEMERIS_TYPE":0,"CLASSIFICATION_TYPE":"U","NORAD_CAT_ID":42709,"ELEMENT_SET_NO":999,"REV_AT_EPOCH":637,"BSTAR":0,"MEAN_MOTION_DOT":4.6e-7,"MEAN_MOTION_DDOT":0}]
